PROBA-1                 
1 26958U 01049B   22351.15511949  .00001843  00000+0  15739-3 0  9995
2 26958  97.8481 311.2952 0071895  94.5088 266.4351 14.96966617151803
BIRD 2                  
1 26959U 01049C   22350.80721290  .00023409  00000+0  41236-3 0  9992
2 26959  97.7644  95.6324 0006517  78.3079 281.8903 15.50422516481377
CUTE-1 (CO-55)          
1 27844U 03031E   22351.02523548  .00000338  00000+0  17105-3 0  9994
2 27844  98.6793 355.9730 0008887 296.1459  63.8805 14.22560498  9862
CUBESAT XI-IV (CO-57)   
1 27848U 03031J   22350.90516677  .00000279  00000+0  14591-3 0  9999
2 27848  98.6834 356.3313 0008927 312.8120  47.2306 14.22102186  9598
GENESIS 1               
1 29252U 06029A   22350.99379626  .00006220  00000+0  26751-3 0  9993
2 29252  64.5206 190.9274 0047961 235.0814 124.5801 15.22549827906817
FALCONSAT-3             
1 30776U 07006E   22350.77848308  .00425654  00000+0  19732-2 0  9992
2 30776  35.4240 129.0318 0006919  37.0006 323.1210 15.81297483878124
GENESIS 2               
1 31789U 07028A   22351.07099237  .00006438  00000+0  28154-3 0  9998
2 31789  64.4958 234.3324 0059098 286.9665  72.4987 15.21404871853725
APRIZESAT 4             
1 35684U 09041D   22351.01142273  .00000661  00000+0  93659-4 0  9991
2 35684  98.3020  10.8599 0047677 125.1383 235.4309 14.79872684722111
APRIZESAT 3             
1 35686U 09041F   22351.05990008  .00001223  00000+0  13304-3 0  9997
2 35686  98.1027  81.7717 0070519 310.1913  49.3143 14.88308865725816
PROBA-2                 
1 36037U 09059B   22351.08774381  .00000315  00000+0  86442-4 0  9999
2 36037  98.2206 174.2723 0012244 265.6786  94.3011 14.53347353695878
APRIZESAT 5             
1 37792U 11044E   22350.94707025  .00000728  00000+0  11103-3 0  9999
2 37792  98.2988 231.4856 0058223 141.3877 219.1517 14.76002662610056
APRIZESAT 6             
1 37793U 11044F   22350.85434122  .00000719  00000+0  11889-3 0  9996
2 37793  98.3764 208.9061 0046011 196.1656 227.7819 14.72987029608717
PROBA-V                 
1 39159U 13021A   22351.10595956  .00000053  00000+0  41778-4 0  9995
2 39159  98.3383  17.6146 0003023 279.4069  80.6768 14.23065030499307
STPSAT-3                
1 39380U 13064A   22350.47692579  .00094061  00000+0  11235-2 0  9991
2 39380  40.4982  12.2491 0010698 175.4511 184.6410 15.59862218509206
APRIZESAT 7             
1 39416U 13066A   22350.86952697  .00001073  00000+0  13052-3 0  9997
2 39416  97.5958 322.1332 0041827 115.9699 244.5835 14.84802631491109
APRIZESAT 8             
1 39425U 13066K   22350.84852086  .00000855  00000+0  11206-3 0  9992
2 39425  97.6531 313.9207 0051566 161.5705 198.7392 14.81920592489976
BUGSAT-1 (TITA)         
1 40014U 14033E   22350.93724522  .00002097  00000+0  18365-3 0  9999
2 40014  98.1460 356.9361 0030357 150.7734 209.5198 14.97549507463443
SAUDISAT 4              
1 40016U 14033G   22351.11190930  .00000710  00000+0  10915-3 0  9995
2 40016  97.6340 175.9054 0046504 268.7887  90.7995 14.75742744457356
APRIZESAT 9             
1 40018U 14033J   22351.05595547  .00000540  00000+0  93744-4 0  9996
2 40018  97.7296 152.0493 0070523 348.4351  11.5232 14.70459229455612
APRIZESAT 10            
1 40019U 14033K   22351.03788567  .00000441  00000+0  82155-4 0  9995
2 40019  97.7892 142.1118 0084458  34.5933 326.0726 14.67490885454755
TDS 1                   
1 40076U 14037H   22350.71917041  .00003055  00000+0  35190-3 0  9997
2 40076  98.3647 233.2250 0006032 192.5810 167.5254 14.86510104456779
TIANTUO 2               
1 40144U 14053B   22351.21011469  .00008610  00000+0  21602-3 0  9991
2 40144  97.1801  67.6276 0008517 256.1456 127.9993 15.40223238463200
TECHNOSAT               
1 42829U 17042E   22351.09593425  .00001729  00000+0  17368-3 0  9995
2 42829  97.3986 194.4258 0015184 113.4165 246.8653 14.92389685295322
FLYING LAPTOP           
1 42831U 17042G   22350.88676494  .00001590  00000+0  16086-3 0  9994
2 42831  97.4001 194.5700 0015050 114.0352 246.2438 14.92208664295292
HAWK-A                  
1 43765U 18099H   22351.10923987  .00002483  00000+0  21597-3 0  9997
2 43765  97.5979  54.3593 0014718  21.9930 338.1921 14.97778477220470
HAWK-B                  
1 43794U 18099AN  22351.17645181  .00002417  00000+0  21038-3 0  9990
2 43794  97.5979  54.4245 0014731  22.1732 338.0125 14.97775052220476
HAWK-C                  
1 43799U 18099AT  22350.84219695  .00002465  00000+0  21442-3 0  9997
2 43799  97.5977  54.0044 0014676  22.9264 337.2611 14.97775113221175
SALSAT                  
1 46495U 20068K   22350.81179230  .00003548  00000+0  25052-3 0  9993
2 46495  97.7489 292.4464 0016959  24.3000 335.9022 15.05484688121618
